{"type": "FeatureCollection", "features": [ {"type": "Feature", "properties": {"norad_id": 66655, "name": "2025-274F", "group": "last-30-days", "lat": -15.661359651123254, "lon": -75.38922824391724, "alt_km": 595.7521632435437, "timestamp": "2025-12-21T09:37:21.370955+00:00", "meta": {"OBJECT_NAME": "2025-274F", "OBJECT_ID": "2025-274F", "EPOCH": "2025-12-21T01:38:27.508416", "MEAN_MOTION": 14.9118005, "ECCENTRICITY": 0.0004841, "INCLINATION": 97.7329, "RA_OF_ASC_NODE": 282.1016, "ARG_OF_PERICENTER": 354.4342, "MEAN_ANOMALY": 5.6822, "EPHEMERIS_TYPE": 0, "CLASSIFICATION_TYPE": "U", "NORAD_CAT_ID": 66655, "ELEMENT_SET_NO": 999, "REV_AT_EPOCH": 364, "BSTAR": 7.1734e-06, "MEAN_MOTION_DOT": 1.6e-07, "MEAN_MOTION_DDOT": 0}, "tle": {"line1": "1 66655U 25274F   25355.06837394  .00000016  00000+0  71734-5 0  9991", "line2": "2 66655  97.7329 282.1016 0004841 354.4342   5.6822 14.91180050  3644"}}, "geometry": {"type": "Point", "coordinates": [-75.38922824391724, -15.661359651123254]}}, {"type": "Feature", "properties": {"norad_id": 66656, "name": "2025-274G", "group": "last-30-days", "lat": 26.59057060983057, "lon": -81.45221404297811, "alt_km": 598.188151389124, "timestamp": "2025-12-21T09:37:21.370965+00:00", "meta": {"OBJECT_NAME": "2025-274G", "OBJECT_ID": "2025-274G", "EPOCH": "2025-12-21T01:27:22.379616", "MEAN_MOTION": 14.92317056, "ECCENTRICITY": 0.0012719, "INCLINATION": 97.7403, "RA_OF_ASC_NODE": 282.1173, "ARG_OF_PERICENTER": 226.3765, "MEAN_ANOMALY": 133.64, "EPHEMERIS_TYPE": 0, "CLASSIFICATION_TYPE": "U", "NORAD_CAT_ID": 66656, "ELEMENT_SET_NO": 999, "REV_AT_EPOCH": 364, "BSTAR": 0.00017089, "MEAN_MOTION_DOT": 1.692e-05, "MEAN_MOTION_DDOT": 0}, "tle": {"line1": "1 66656U 25274G   25355.06067569  .00001692  00000+0  17089-3 0  9993", "line2": "2 66656  97.7403 282.1173 0012719 226.3765 133.6400 14.92317056  3644"}}, "geometry": {"type": "Point", "coordinates": [-81.45221404297811, 26.59057060983057]}}, {"type": "Feature", "properties": {"norad_id": 66657, "name": "SPIRONE", "group": "last-30-days", "lat": 42.30344449260992, "lon": -84.65211129886369, "alt_km": 593.8073856108731, "timestamp": "2025-12-21T09:37:21.370978+00:00", "meta": {"OBJECT_NAME": "SPIRONE", "OBJECT_ID": "2025-274H", "EPOCH": "2025-12-21T01:23:09.760704", "MEAN_MOTION": 14.92495961, "ECCENTRICITY": 0.001084, "INCLINATION": 97.74, "RA_OF_ASC_NODE": 282.1205, "ARG_OF_PERICENTER": 244.5017, "MEAN_ANOMALY": 115.5082, "EPHEMERIS_TYPE": 0, "CLASSIFICATION_TYPE": "U", "NORAD_CAT_ID": 66657, "ELEMENT_SET_NO": 999, "REV_AT_EPOCH": 364, "BSTAR": 0.0001592, "MEAN_MOTION_DOT": 1.579e-05, "MEAN_MOTION_DDOT": 0}, "tle": {"line1": "1 66657U 25274H   25355.05775186  .00001579  00000+0  15920-3 0  9990", "line2": "2 66657  97.7400 282.1205 0010840 244.5017 115.5082 14.92495961  3640"}}, "geometry": {"type": "Point", "coordinates": [-84.65211129886369, 42.30344449260992]}}, {"type": "Feature", "properties": {"norad_id": 66658, "name": "2025-274J", "group": "last-30-days", "lat": 57.302548747580836, "lon": -89.76790530627032, "alt_km": 591.968761402074, "timestamp": "2025-12-21T09:37:21.370988+00:00", "meta": {"OBJECT_NAME": "2025-274J", "OBJECT_ID": "2025-274J", "EPOCH": "2025-12-21T01:19:06.065184", "MEAN_MOTION": 14.92665941, "ECCENTRICITY": 0.0011362, "INCLINATION": 97.7401, "RA_OF_ASC_NODE": 282.1244, "ARG_OF_PERICENTER": 247.8115, "MEAN_ANOMALY": 112.1899, "EPHEMERIS_TYPE": 0, "CLASSIFICATION_TYPE": "U", "NORAD_CAT_ID": 66658, "ELEMENT_SET_NO": 999, "REV_AT_EPOCH": 364, "BSTAR": 0.00014447, "MEAN_MOTION_DOT": 1.434e-05, "MEAN_MOTION_DDOT": 0}, "tle": {"line1": "1 66658U 25274J   25355.05493131  .00001434  00000+0  14447-3 0  9991", "line2": "2 66658  97.7401 282.1244 0011362 247.8115 112.1899 14.92665941  3646"}}, "geometry": {"type": "Point", "coordinates": [-89.76790530627032, 57.302548747580836]}}, {"type": "Feature", "properties": {"norad_id": 66659, "name": "JACK K", "group": "last-30-days", "lat": 72.80224243264811, "lon": -103.59629906752482, "alt_km": 590.412849453648, "timestamp": "2025-12-21T09:37:21.371000+00:00", "meta": {"OBJECT_NAME": "JACK K", "OBJECT_ID": "2025-274K", "EPOCH": "2025-12-20T18:48:39.993408", "MEAN_MOTION": 14.92849632, "ECCENTRICITY": 0.00120482, "INCLINATION": 97.7402, "RA_OF_ASC_NODE": 281.8653, "ARG_OF_PERICENTER": 250.4202, "MEAN_ANOMALY": 109.5717, "EPHEMERIS_TYPE": 0, "CLASSIFICATION_TYPE": "U", "NORAD_CAT_ID": 66659, "ELEMENT_SET_NO": 999, "REV_AT_EPOCH": 360, "BSTAR": 0.00012555127, "MEAN_MOTION_DOT": 1.245e-05, "MEAN_MOTION_DDOT": 0}, "tle": {"line1": "1 66659U 25274K   25354.78379622  .00001245  00000+0  12555-3 0  9997", "line2": "2 66659  97.7402 281.8653 0012048 250.4202 109.5717 14.92849632  3603"}}, "geometry": {"type": "Point", "coordinates": [-103.59629906752482, 72.80224243264811]}}, {"type": "Feature", "properties": {"norad_id": 66660, "name": "K-HERO", "group": "last-30-days", "lat": 81.98392464542633, "lon": -152.50994891310194, "alt_km": 589.4672359266733, "timestamp": "2025-12-21T09:37:21.371010+00:00", "meta": {"OBJECT_NAME": "K-HERO", "OBJECT_ID": "2025-274L", "EPOCH": "2025-12-20T18:45:10.711008", "MEAN_MOTION": 14.93000619, "ECCENTRICITY": 0.00126544, "INCLINATION": 97.7407, "RA_OF_ASC_NODE": 281.8694, "ARG_OF_PERICENTER": 251.1884, "MEAN_ANOMALY": 108.7963, "EPHEMERIS_TYPE": 0, "CLASSIFICATION_TYPE": "U", "NORAD_CAT_ID": 66660, "ELEMENT_SET_NO": 999, "REV_AT_EPOCH": 360, "BSTAR": 0.00012043284, "MEAN_MOTION_DOT": 1.197e-05, "MEAN_MOTION_DDOT": 0}, "tle": {"line1": "1 66660U 25274L   25354.78137397  .00001197  00000+0  12043-3 0  9998", "line2": "2 66660  97.7407 281.8694 0012654 251.1884 108.7963 14.93000619  3601"}}, "geometry": {"type": "Point", "coordinates": [-152.50994891310194, 81.98392464542633]}}, {"type": "Feature", "properties": {"norad_id": 66661, "name": "SNUGLITE-III", "group": "last-30-days", "lat": 76.7815223454021, "lon": 137.868160870225, "alt_km": 588.9041876539641, "timestamp": "2025-12-21T09:37:21.371020+00:00", "meta": {"OBJECT_NAME": "SNUGLITE-III", "OBJECT_ID": "2025-274M", "EPOCH": "2025-12-21T01:07:49.476288", "MEAN_MOTION": 14.93135764, "ECCENTRICITY": 0.0013277, "INCLINATION": 97.7403, "RA_OF_ASC_NODE": 282.1356, "ARG_OF_PERICENTER": 251.4598, "MEAN_ANOMALY": 108.5179, "EPHEMERIS_TYPE": 0, "CLASSIFICATION_TYPE": "U", "NORAD_CAT_ID": 66661, "ELEMENT_SET_NO": 999, "REV_AT_EPOCH": 364, "BSTAR": 0.00014698, "MEAN_MOTION_DOT": 1.478e-05, "MEAN_MOTION_DDOT": 0}, "tle": {"line1": "1 66661U 25274M   25355.04710042  .00001478  00000+0  14698-3 0  9993", "line2": "2 66661  97.7403 282.1356 0013277 251.4598 108.5179 14.93135764  3645"}}, "geometry": {"type": "Point", "coordinates": [137.868160870225, 76.7815223454021]}}, {"type": "Feature", "properties": {"norad_id": 66662, "name": "2025-274N", "group": "last-30-days", "lat": 72.44997530889299, "lon": 127.9592883164436, "alt_km": 588.7823612279963, "timestamp": "2025-12-21T09:37:21.371031+00:00", "meta": {"OBJECT_NAME": "2025-274N", "OBJECT_ID": "2025-274N", "EPOCH": "2025-12-20T18:40:29.805600", "MEAN_MOTION": 14.93190655, "ECCENTRICITY": 0.00136843, "INCLINATION": 97.7406, "RA_OF_ASC_NODE": 281.8732, "ARG_OF_PERICENTER": 252.269, "MEAN_ANOMALY": 107.7037, "EPHEMERIS_TYPE": 0, "CLASSIFICATION_TYPE": "U", "NORAD_CAT_ID": 66662, "ELEMENT_SET_NO": 999, "REV_AT_EPOCH": 360, "BSTAR": 0.00012048909, "MEAN_MOTION_DOT": 1.203e-05, "MEAN_MOTION_DDOT": 0}, "tle": {"line1": "1 66662U 25274N   25354.77812275  .00001203  00000+0  12049-3 0  9998", "line2": "2 66662  97.7406 281.8732 0013684 252.2690 107.7037 14.93190655  3607"}}, "geometry": {"type": "Point", "coordinates": [127.9592883164436, 72.44997530889299]}}, {"type": "Feature", "properties": {"norad_id": 66663, "name": "KSLV-II R/B", "group": "last-30-days", "lat": 59.666289185866155, "lon": 116.1114027007722, "alt_km": 607.8573713338565, "timestamp": "2025-12-21T09:37:21.371043+00:00", "meta": {"OBJECT_NAME": "KSLV-II R/B", "OBJECT_ID": "2025-274P", "EPOCH": "2025-12-20T18:39:17.894880", "MEAN_MOTION": 14.97471728, "ECCENTRICITY": 0.0056938, "INCLINATION": 97.7441, "RA_OF_ASC_NODE": 282.0453, "ARG_OF_PERICENTER": 291.1678, "MEAN_ANOMALY": 68.3465, "EPHEMERIS_TYPE": 0, "CLASSIFICATION_TYPE": "U", "NORAD_CAT_ID": 66663, "ELEMENT_SET_NO": 999, "REV_AT_EPOCH": 361, "BSTAR": 0.00085036, "MEAN_MOTION_DOT": 0.00010185, "MEAN_MOTION_DDOT": 0}, "tle": {"line1": "1 66663U 25274P   25354.77729045  .00010185  00000+0  85036-3 0  9996", "line2": "2 66663  97.7441 282.0453 0056938 291.1678  68.3465 14.97471728  3612"}}, "geometry": {"type": "Point", "coordinates": [116.1114027007722, 59.666289185866155]}}, {"type": "Feature", "properties": {"norad_id": 66664, "name": "SOYUZ-MS 28", "group": "last-30-days", "lat": 31.039326812354474, "lon": -108.889083722448, "alt_km": 415.31231463539734, "timestamp": "2025-12-21T09:37:21.371054+00:00", "meta": {"OBJECT_NAME": "SOYUZ-MS 28", "OBJECT_ID": "2025-275A", "EPOCH": "2025-12-20T16:00:06.134688", "MEAN_MOTION": 15.49686708, "ECCENTRICITY": 0.0003164, "INCLINATION": 51.6321, "RA_OF_ASC_NODE": 103.2234, "ARG_OF_PERICENTER": 277.4707, "MEAN_ANOMALY": 82.5922, "EPHEMERIS_TYPE": 0, "CLASSIFICATION_TYPE": "U", "NORAD_CAT_ID": 66664, "ELEMENT_SET_NO": 999, "REV_AT_EPOCH": 367, "BSTAR": 0.00013711, "MEAN_MOTION_DOT": 7.293e-05, "MEAN_MOTION_DDOT": 0}, "tle": {"line1": "1 66664U 25275A   25354.66673767  .00007293  00000+0  13711-3 0  9992", "line2": "2 66664  51.6321 103.2234 0003164 277.4707  82.5922 15.49686708  3679"}}, "geometry": {"type": "Point", "coordinates": [-108.889083722448, 31.039326812354474]}}]}